[{"OBJECT_NAME":"DEIMOS-1","OBJECT_ID":"2009-041A","EPOCH":"2026-03-09T22:50:30.761952","MEAN_MOTION":14.75118191,"ECCENTRICITY":0.00022903,"INCLINATION":97.7263,"RA_OF_ASC_NODE":230.5528,"ARG_OF_PERICENTER":117.9333,"MEAN_ANOMALY":242.2109,"EPHEMERIS_TYPE":0,"CLASSIFICATION_TYPE":"U","NORAD_CAT_ID":35681,"ELEMENT_SET_NO":999,"REV_AT_EPOCH":89225,"BSTAR":0.00020972265,"MEAN_MOTION_DOT":1.367e-5,"MEAN_MOTION_DDOT":0},{"OBJECT_NAME":"JILIN-1","OBJECT_ID":"2015-057D","EPOCH":"2026-03-09T23:20:41.450208","MEAN_MOTION":14.7799363,"ECCENTRICITY":0.00159161,"INCLINATION":97.6518,"RA_OF_ASC_NODE":73.2783,"ARG_OF_PERICENTER":222.7613,"MEAN_ANOMALY":137.2362,"EPHEMERIS_TYPE":0,"CLASSIFICATION_TYPE":"U","NORAD_CAT_ID":40961,"ELEMENT_SET_NO":999,"REV_AT_EPOCH":56095,"BSTAR":0.00014277196,"MEAN_MOTION_DOT":9.83e-6,"MEAN_MOTION_DDOT":0}]
